{
  "type": "FeatureCollection",
  "features": [
    {
      "type": "Feature",
      "properties": {
        "norad_id": 66485,
        "name": "STARLINK-34774",
        "group": "last-30-days",
        "lat": 17.640156500330963,
        "lon": -63.30159094502584,
        "alt_km": 437.52344675717904,
        "timestamp": "2025-12-10T18:56:58.832332+00:00",
        "meta_object_name": "STARLINK-34774",
        "meta_object_id": "2025-263A",
        "meta_epoch": "2025-12-10T12:00:02.998944",
        "meta_mean_motion": 15.43265935,
        "meta_eccentricity": 0.0001412,
        "meta_inclination": 43.0005,
        "meta_ra_of_asc_node": 138.3246,
        "meta_arg_of_pericenter": 259.6722,
        "meta_mean_anomaly": 84.0034,
        "meta_ephemeris_type": 0,
        "meta_classification_type": "U",
        "meta_norad_cat_id": 66485,
        "meta_element_set_no": 999,
        "meta_rev_at_epoch": 527,
        "meta_bstar": -0.046405,
        "meta_mean_motion_dot": -0.01894712,
        "meta_mean_motion_ddot": 0,
        "tle_line1": "1 66485U 25263A   25344.50003471 -.01894712  00000+0 -46405-1 0  9998",
        "tle_line2": "2 66485  43.0005 138.3246 0001412 259.6722  84.0034 15.43265935  5277"
      },
      "geometry": {
        "type": "Point",
        "coordinates": [
          -63.30159094502584,
          17.640156500330963
        ]
      }
    },
    {
      "type": "Feature",
      "properties": {
        "norad_id": 66486,
        "name": "STARLINK-34844",
        "group": "last-30-days",
        "lat": -3.3406364313576487,
        "lon": -39.83594869474704,
        "alt_km": 414.9952953233924,
        "timestamp": "2025-12-10T18:56:58.832344+00:00",
        "meta_object_name": "STARLINK-34844",
        "meta_object_id": "2025-263B",
        "meta_epoch": "2025-12-10T12:00:02.998944",
        "meta_mean_motion": 15.50604714,
        "meta_eccentricity": 0.0001592,
        "meta_inclination": 43.0006,
        "meta_ra_of_asc_node": 138.2667,
        "meta_arg_of_pericenter": 256.9693,
        "meta_mean_anomaly": 109.7164,
        "meta_ephemeris_type": 0,
        "meta_classification_type": "U",
        "meta_norad_cat_id": 66486,
        "meta_element_set_no": 999,
        "meta_rev_at_epoch": 522,
        "meta_bstar": -0.0013762,
        "meta_mean_motion_dot": -0.0008033,
        "meta_mean_motion_ddot": 0,
        "tle_line1": "1 66486U 25263B   25344.50003471 -.00080330  00000+0 -13762-2 0  9992",
        "tle_line2": "2 66486  43.0006 138.2667 0001592 256.9693 109.7164 15.50604714  5225"
      },
      "geometry": {
        "type": "Point",
        "coordinates": [
          -39.83594869474704,
          -3.3406364313576487
        ]
      }
    },
    {
      "type": "Feature",
      "properties": {
        "norad_id": 66487,
        "name": "STARLINK-34733",
        "group": "last-30-days",
        "lat": -4.6175710827641145,
        "lon": -38.461175285437776,
        "alt_km": 415.30760017156354,
        "timestamp": "2025-12-10T18:56:58.832355+00:00",
        "meta_object_name": "STARLINK-34733",
        "meta_object_id": "2025-263C",
        "meta_epoch": "2025-12-10T06:00:02.000160",
        "meta_mean_motion": 15.50602793,
        "meta_eccentricity": 0.00017079,
        "meta_inclination": 43.0007,
        "meta_ra_of_asc_node": 139.7232,
        "meta_arg_of_pericenter": 258.6981,
        "meta_mean_anomaly": 152.66,
        "meta_ephemeris_type": 0,
        "meta_classification_type": "U",
        "meta_norad_cat_id": 66487,
        "meta_element_set_no": 999,
        "meta_rev_at_epoch": 523,
        "meta_bstar": -0.0015352984,
        "meta_mean_motion_dot": -0.00089466,
        "meta_mean_motion_ddot": 0,
        "tle_line1": "1 66487U 25263C   25344.25002315 -.00089466  00000+0 -15353-2 0  9998",
        "tle_line2": "2 66487  43.0007 139.7232 0001707 258.6981 152.6600 15.50602793  5236"
      },
      "geometry": {
        "type": "Point",
        "coordinates": [
          -38.461175285437776,
          -4.6175710827641145
        ]
      }
    },
    {
      "type": "Feature",
      "properties": {
        "norad_id": 66488,
        "name": "STARLINK-35515",
        "group": "last-30-days",
        "lat": -5.945053299629098,
        "lon": -37.01993946268717,
        "alt_km": 415.3178230175463,
        "timestamp": "2025-12-10T18:56:58.832365+00:00",
        "meta_object_name": "STARLINK-35515",
        "meta_object_id": "2025-263D",
        "meta_epoch": "2025-12-10T12:00:02.998944",
        "meta_mean_motion": 15.50607962,
        "meta_eccentricity": 0.0001533,
        "meta_inclination": 43.0006,
        "meta_ra_of_asc_node": 138.2579,
        "meta_arg_of_pericenter": 260.5378,
        "meta_mean_anomaly": 109.9812,
        "meta_ephemeris_type": 0,
        "meta_classification_type": "U",
        "meta_norad_cat_id": 66488,
        "meta_element_set_no": 999,
        "meta_rev_at_epoch": 527,
        "meta_bstar": -0.0014827,
        "meta_mean_motion_dot": -0.0008646,
        "meta_mean_motion_ddot": 0,
        "tle_line1": "1 66488U 25263D   25344.50003471 -.00086460  00000+0 -14827-2 0  9997",
        "tle_line2": "2 66488  43.0006 138.2579 0001533 260.5378 109.9812 15.50607962  5270"
      },
      "geometry": {
        "type": "Point",
        "coordinates": [
          -37.01993946268717,
          -5.945053299629098
        ]
      }
    },
    {
      "type": "Feature",
      "properties": {
        "norad_id": 66489,
        "name": "STARLINK-35696",
        "group": "last-30-days",
        "lat": -7.2401178975803875,
        "lon": -35.605613687367864,
        "alt_km": 415.50547129270217,
        "timestamp": "2025-12-10T18:56:58.832377+00:00",
        "meta_object_name": "STARLINK-35696",
        "meta_object_id": "2025-263E",
        "meta_epoch": "2025-12-10T12:00:02.998944",
        "meta_mean_motion": 15.50589455,
        "meta_eccentricity": 0.0001502,
        "meta_inclination": 43.0005,
        "meta_ra_of_asc_node": 138.2528,
        "meta_arg_of_pericenter": 264.0312,
        "meta_mean_anomaly": 108.4125,
        "meta_ephemeris_type": 0,
        "meta_classification_type": "U",
        "meta_norad_cat_id": 66489,
        "meta_element_set_no": 999,
        "meta_rev_at_epoch": 527,
        "meta_bstar": -0.00096416,
        "meta_mean_motion_dot": -0.00056518,
        "meta_mean_motion_ddot": 0,
        "tle_line1": "1 66489U 25263E   25344.50003471 -.00056518  00000+0 -96416-3 0  9994",
        "tle_line2": "2 66489  43.0005 138.2528 0001502 264.0312 108.4125 15.50589455  5274"
      },
      "geometry": {
        "type": "Point",
        "coordinates": [
          -35.605613687367864,
          -7.2401178975803875
        ]
      }
    },
    {
      "type": "Feature",
      "properties": {
        "norad_id": 66490,
        "name": "STARLINK-35693",
        "group": "last-30-days",
        "lat": -5.2553606577742755,
        "lon": -37.76981313677185,
        "alt_km": 425.47202664763245,
        "timestamp": "2025-12-10T18:56:58.832387+00:00",
        "meta_object_name": "STARLINK-35693",
        "meta_object_id": "2025-263F",
        "meta_epoch": "2025-12-10T12:00:02.998944",
        "meta_mean_motion": 15.48428562,
        "meta_eccentricity": 0.0001483,
        "meta_inclination": 43.0005,
        "meta_ra_of_asc_node": 138.2522,
        "meta_arg_of_pericenter": 264.7854,
        "meta_mean_anomaly": 107.674,
        "meta_ephemeris_type": 0,
        "meta_classification_type": "U",
        "meta_norad_cat_id": 66490,
        "meta_element_set_no": 999,
        "meta_rev_at_epoch": 527,
        "meta_bstar": -0.043739,
        "meta_mean_motion_dot": -0.02109208,
        "meta_mean_motion_ddot": 0,
        "tle_line1": "1 66490U 25263F   25344.50003471 -.02109208  00000+0 -43739-1 0  9991",
        "tle_line2": "2 66490  43.0005 138.2522 0001483 264.7854 107.6740 15.48428562  5278"
      },
      "geometry": {
        "type": "Point",
        "coordinates": [
          -37.76981313677185,
          -5.2553606577742755
        ]
      }
    },
    {
      "type": "Feature",
      "properties": {
        "norad_id": 66491,
        "name": "STARLINK-35663",
        "group": "last-30-days",
        "lat": -11.101493638575864,
        "lon": -31.299860529926953,
        "alt_km": 415.7070878930008,
        "timestamp": "2025-12-10T18:56:58.832422+00:00",
        "meta_object_name": "STARLINK-35663",
        "meta_object_id": "2025-263G",
        "meta_epoch": "2025-12-10T12:00:02.998944",
        "meta_mean_motion": 15.50611474,
        "meta_eccentricity": 0.0001568,
        "meta_inclination": 43.0006,
        "meta_ra_of_asc_node": 138.2386,
        "meta_arg_of_pericenter": 258.0246,
        "meta_mean_anomaly": 120.1592,
        "meta_ephemeris_type": 0,
        "meta_classification_type": "U",
        "meta_norad_cat_id": 66491,
        "meta_element_set_no": 999,
        "meta_rev_at_epoch": 527,
        "meta_bstar": -0.0015154,
        "meta_mean_motion_dot": -0.00088352,
        "meta_mean_motion_ddot": 0,
        "tle_line1": "1 66491U 25263G   25344.50003471 -.00088352  00000+0 -15154-2 0  9997",
        "tle_line2": "2 66491  43.0006 138.2386 0001568 258.0246 120.1592 15.50611474  5277"
      },
      "geometry": {
        "type": "Point",
        "coordinates": [
          -31.299860529926953,
          -11.101493638575864
        ]
      }
    }
  ]
}